BEIDOU M4               
1 38251U 12018B   17346.27659987 -.00000103  00000-0  10000-3 0  9994
2 38251  56.2892  47.6039 0027877 221.4654 228.4874  1.86233657 38396
